{
 "generated_at": "2026-06-17T09:51:32Z",
 "sources": [
  {
   "name": "CelesTrak",
   "url": "https://celestrak.org/NORAD/elements/",
   "license": "frei verfügbar; Attribution. Ursprünglich USSPACECOM/Space-Track."
  },
  {
   "name": "GCAT (J. McDowell, planet4589.org)",
   "url": "https://planet4589.org/space/gcat/",
   "license": "CC-BY 4.0"
  }
 ],
 "satellites": [
  {
   "norad": 42988,
   "name": "SKYSAT-C10",
   "intl": "2017-068B",
   "group": "resource",
   "gcat": {
    "class": "B",
    "category": "IMG",
    "owner": "PLABST",
    "state": "US"
   },
   "omm": {
    "OBJECT_NAME": "SKYSAT-C10",
    "OBJECT_ID": "2017-068B",
    "EPOCH": "2026-06-16T21:37:37.524000",
    "MEAN_MOTION": 15.34634381,
    "ECCENTRICITY": 0.000111,
    "INCLINATION": 97.4511,
    "RA_OF_ASC_NODE": 304.7449,
    "ARG_OF_PERICENTER": 96.3111,
    "MEAN_ANOMALY": 263.8258,
    "EPHEMERIS_TYPE": 0,
    "CLASSIFICATION_TYPE": "U",
    "NORAD_CAT_ID": 42988,
    "ELEMENT_SET_NO": 999,
    "REV_AT_EPOCH": 48231,
    "BSTAR": 0.00022215,
    "MEAN_MOTION_DOT": 0.00007374,
    "MEAN_MOTION_DDOT": 0
   }
  },
  {
   "norad": 42987,
   "name": "SKYSAT-C11",
   "intl": "2017-068A",
   "group": "resource",
   "gcat": {
    "class": "B",
    "category": "IMG",
    "owner": "PLABST",
    "state": "US"
   },
   "omm": {
    "OBJECT_NAME": "SKYSAT-C11",
    "OBJECT_ID": "2017-068A",
    "EPOCH": "2026-06-16T22:17:30.650208",
    "MEAN_MOTION": 15.57882549,
    "ECCENTRICITY": 0.0000646,
    "INCLINATION": 97.4356,
    "RA_OF_ASC_NODE": 316.7476,
    "ARG_OF_PERICENTER": 89.266,
    "MEAN_ANOMALY": 270.8669,
    "EPHEMERIS_TYPE": 0,
    "CLASSIFICATION_TYPE": "U",
    "NORAD_CAT_ID": 42987,
    "ELEMENT_SET_NO": 999,
    "REV_AT_EPOCH": 48320,
    "BSTAR": 0.00031671,
    "MEAN_MOTION_DOT": 0.00023544,
    "MEAN_MOTION_DDOT": 0
   }
  },
  {
   "norad": 41773,
   "name": "SKYSAT-C2",
   "intl": "2016-058D",
   "group": "resource",
   "gcat": {
    "class": "B",
    "category": "IMG",
    "owner": "TBELLA",
    "state": "US"
   },
   "omm": {
    "OBJECT_NAME": "SKYSAT-C2",
    "OBJECT_ID": "2016-058D",
    "EPOCH": "2026-06-17T01:33:09.983232",
    "MEAN_MOTION": 15.42069325,
    "ECCENTRICITY": 0.0004679,
    "INCLINATION": 97.0162,
    "RA_OF_ASC_NODE": 190.1642,
    "ARG_OF_PERICENTER": 71.1807,
    "MEAN_ANOMALY": 288.9948,
    "EPHEMERIS_TYPE": 0,
    "CLASSIFICATION_TYPE": "U",
    "NORAD_CAT_ID": 41773,
    "ELEMENT_SET_NO": 999,
    "REV_AT_EPOCH": 54503,
    "BSTAR": 0.00024548,
    "MEAN_MOTION_DOT": 0.00010412,
    "MEAN_MOTION_DDOT": 0
   }
  },
  {
   "norad": 41774,
   "name": "SKYSAT-C3",
   "intl": "2016-058E",
   "group": "resource",
   "gcat": {
    "class": "B",
    "category": "IMG",
    "owner": "TBELLA",
    "state": "US"
   },
   "omm": {
    "OBJECT_NAME": "SKYSAT-C3",
    "OBJECT_ID": "2016-058E",
    "EPOCH": "2026-06-17T01:53:38.287104",
    "MEAN_MOTION": 15.52534621,
    "ECCENTRICITY": 0.0001501,
    "INCLINATION": 96.8998,
    "RA_OF_ASC_NODE": 198.9295,
    "ARG_OF_PERICENTER": 94.9033,
    "MEAN_ANOMALY": 265.2393,
    "EPHEMERIS_TYPE": 0,
    "CLASSIFICATION_TYPE": "U",
    "NORAD_CAT_ID": 41774,
    "ELEMENT_SET_NO": 999,
    "REV_AT_EPOCH": 54609,
    "BSTAR": 0.00030236,
    "MEAN_MOTION_DOT": 0.00018467,
    "MEAN_MOTION_DDOT": 0
   }
  },
  {
   "norad": 41771,
   "name": "SKYSAT-C4",
   "intl": "2016-058B",
   "group": "resource",
   "gcat": {
    "class": "B",
    "category": "IMG",
    "owner": "TBELLA",
    "state": "US"
   },
   "omm": {
    "OBJECT_NAME": "SKYSAT-C4",
    "OBJECT_ID": "2016-058B",
    "EPOCH": "2026-06-17T00:13:01.691040",
    "MEAN_MOTION": 15.48581946,
    "ECCENTRICITY": 0.0001367,
    "INCLINATION": 96.9166,
    "RA_OF_ASC_NODE": 189.7887,
    "ARG_OF_PERICENTER": 133.2052,
    "MEAN_ANOMALY": 226.9314,
    "EPHEMERIS_TYPE": 0,
    "CLASSIFICATION_TYPE": "U",
    "NORAD_CAT_ID": 41771,
    "ELEMENT_SET_NO": 999,
    "REV_AT_EPOCH": 54544,
    "BSTAR": 0.00026781,
    "MEAN_MOTION_DOT": 0.00014202,
    "MEAN_MOTION_DDOT": 0
   }
  },
  {
   "norad": 41772,
   "name": "SKYSAT-C5",
   "intl": "2016-058C",
   "group": "resource",
   "gcat": {
    "class": "B",
    "category": "IMG",
    "owner": "TBELLA",
    "state": "US"
   },
   "omm": {
    "OBJECT_NAME": "SKYSAT-C5",
    "OBJECT_ID": "2016-058C",
    "EPOCH": "2026-06-17T02:29:39.410304",
    "MEAN_MOTION": 15.34468979,
    "ECCENTRICITY": 0.0001082,
    "INCLINATION": 97.0466,
    "RA_OF_ASC_NODE": 208.7481,
    "ARG_OF_PERICENTER": 316.1442,
    "MEAN_ANOMALY": 43.9716,
    "EPHEMERIS_TYPE": 0,
    "CLASSIFICATION_TYPE": "U",
    "NORAD_CAT_ID": 41772,
    "ELEMENT_SET_NO": 999,
    "REV_AT_EPOCH": 54373,
    "BSTAR": 0.00018073,
    "MEAN_MOTION_DOT": 0.00005959,
    "MEAN_MOTION_DDOT": 0
   }
  },
  {
   "norad": 42992,
   "name": "SKYSAT-C6",
   "intl": "2017-068F",
   "group": "resource",
   "gcat": {
    "class": "B",
    "category": "IMG",
    "owner": "PLABST",
    "state": "US"
   },
   "omm": {
    "OBJECT_NAME": "SKYSAT-C6",
    "OBJECT_ID": "2017-068F",
    "EPOCH": "2026-06-16T21:15:39.638880",
    "MEAN_MOTION": 15.34206495,
    "ECCENTRICITY": 0.000442,
    "INCLINATION": 97.4572,
    "RA_OF_ASC_NODE": 305.4883,
    "ARG_OF_PERICENTER": 138.2545,
    "MEAN_ANOMALY": 221.9035,
    "EPHEMERIS_TYPE": 0,
    "CLASSIFICATION_TYPE": "U",
    "NORAD_CAT_ID": 42992,
    "ELEMENT_SET_NO": 999,
    "REV_AT_EPOCH": 48227,
    "BSTAR": 0.00023662,
    "MEAN_MOTION_DOT": 0.00007756,
    "MEAN_MOTION_DDOT": 0
   }
  },
  {
   "norad": 42991,
   "name": "SKYSAT-C7",
   "intl": "2017-068E",
   "group": "resource",
   "gcat": {
    "class": "B",
    "category": "IMG",
    "owner": "PLABST",
    "state": "US"
   },
   "omm": {
    "OBJECT_NAME": "SKYSAT-C7",
    "OBJECT_ID": "2017-068E",
    "EPOCH": "2026-06-17T03:02:48.996672",
    "MEAN_MOTION": 15.36926015,
    "ECCENTRICITY": 0.0007206,
    "INCLINATION": 97.4538,
    "RA_OF_ASC_NODE": 305.7619,
    "ARG_OF_PERICENTER": 106.7958,
    "MEAN_ANOMALY": 253.4077,
    "EPHEMERIS_TYPE": 0,
    "CLASSIFICATION_TYPE": "U",
    "NORAD_CAT_ID": 42991,
    "ELEMENT_SET_NO": 999,
    "REV_AT_EPOCH": 48236,
    "BSTAR": 0.00025952,
    "MEAN_MOTION_DOT": 0.00009296,
    "MEAN_MOTION_DDOT": 0
   }
  },
  {
   "norad": 42990,
   "name": "SKYSAT-C8",
   "intl": "2017-068D",
   "group": "resource",
   "gcat": {
    "class": "B",
    "category": "IMG",
    "owner": "PLABST",
    "state": "US"
   },
   "omm": {
    "OBJECT_NAME": "SKYSAT-C8",
    "OBJECT_ID": "2017-068D",
    "EPOCH": "2026-06-17T03:12:00.499104",
    "MEAN_MOTION": 15.36975735,
    "ECCENTRICITY": 0.0001478,
    "INCLINATION": 97.4529,
    "RA_OF_ASC_NODE": 304.779,
    "ARG_OF_PERICENTER": 95.818,
    "MEAN_ANOMALY": 264.3233,
    "EPHEMERIS_TYPE": 0,
    "CLASSIFICATION_TYPE": "U",
    "NORAD_CAT_ID": 42990,
    "ELEMENT_SET_NO": 999,
    "REV_AT_EPOCH": 48230,
    "BSTAR": 0.00025826,
    "MEAN_MOTION_DOT": 0.00009258,
    "MEAN_MOTION_DDOT": 0
   }
  },
  {
   "norad": 42989,
   "name": "SKYSAT-C9",
   "intl": "2017-068C",
   "group": "resource",
   "gcat": {
    "class": "B",
    "category": "IMG",
    "owner": "PLABST",
    "state": "US"
   },
   "omm": {
    "OBJECT_NAME": "SKYSAT-C9",
    "OBJECT_ID": "2017-068C",
    "EPOCH": "2026-06-16T21:56:44.361312",
    "MEAN_MOTION": 15.41555946,
    "ECCENTRICITY": 0.0009394,
    "INCLINATION": 97.443,
    "RA_OF_ASC_NODE": 305.6905,
    "ARG_OF_PERICENTER": 133.8098,
    "MEAN_ANOMALY": 226.3927,
    "EPHEMERIS_TYPE": 0,
    "CLASSIFICATION_TYPE": "U",
    "NORAD_CAT_ID": 42989,
    "ELEMENT_SET_NO": 999,
    "REV_AT_EPOCH": 48271,
    "BSTAR": 0.00027037,
    "MEAN_MOTION_DOT": 0.00011288,
    "MEAN_MOTION_DDOT": 0
   }
  }
 ]
}
